OBJECT_NAME,OBJECT_ID,EPOCH,MEAN_MOTION,ECCENTRICITY,INCLINATION,RA_OF_ASC_NODE,ARG_OF_PERICENTER,MEAN_ANOMALY,EPHEMERIS_TYPE,CLASSIFICATION_TYPE,NORAD_CAT_ID,ELEMENT_SET_NO,REV_AT_EPOCH,BSTAR,MEAN_MOTION_DOT,MEAN_MOTION_DDOT
STARLINK-5504,2023-094AW,2026-06-10T20:56:26.056320,15.27576477,.00017898,43.0047,213.4142,263.3409,96.7239,0,U,57262,999,16149,.31228461E-4,.597E-5,0
STARLINK-5509,2023-094AX,2026-06-11T10:21:15.911424,15.27576787,.0001001,42.9981,221.1781,238.2445,121.8309,0,U,57263,999,16145,.10589E-4,.29E-6,0
STARLINK-5858,2023-094AY,2026-06-10T10:12:08.404992,15.27570239,.00019073,43.0029,216.0744,266.3795,93.6839,0,U,57264,999,16142,-.54539279E-4,-.1762E-4,0
HULIANWANG JISHU SHIYAN A,2023-095A,2026-06-11T22:52:42.775104,13.39542154,.00169359,86.5031,6.5875,199.9940,160.0541,0,U,57288,999,14305,.94657434E-4,.66E-6,0
HULIANWANG JISHU SHIYAN B,2023-095B,2026-06-11T22:40:47.053920,13.39550895,.00155841,86.5033,6.5994,197.4345,162.6265,0,U,57289,999,14305,.96456558E-4,.67E-6,0
STARLINK-30198,2023-096A,2026-06-11T10:09:28.031040,15.25162671,.0006884,42.9900,57.9593,213.3778,146.6639,0,U,57290,999,16190,.11287E-2,.2874E-3,0
STARLINK-30239,2023-096B,2026-06-11T10:08:44.835360,15.27581589,.0007852,43.0250,53.7400,270.1614,89.8338,0,U,57291,999,16195,-.41968243E-4,-.1421E-4,0
STARLINK-30235,2023-096E,2026-06-11T10:18:01.770624,15.27579263,.0000395,42.9982,53.7874,217.5989,142.4835,0,U,57294,999,16195,.27169E-4,.486E-5,0
STARLINK-30236,2023-096L,2026-06-10T23:24:28.817856,15.27576589,.00011933,42.9994,56.3878,247.8070,112.2655,0,U,57300,999,16192,.13207378E-4,.101E-5,0
STARLINK-30201,2023-096M,2026-06-10T00:06:56.413440,15.27578748,.00010774,43.0067,62.0117,266.6436,93.4293,0,U,57301,999,16083,.28460187E-4,.521E-5,0
STARLINK-30233,2023-096N,2026-06-10T23:30:01.708416,15.27581117,.00007106,43.0062,56.4076,254.2964,105.7809,0,U,57302,999,16098,.33395987E-4,.657E-5,0
STARLINK-30184,2023-096W,2026-06-11T08:12:15.977376,15.27578032,.0000353,43.0097,25.5716,297.3273,62.7543,0,U,57310,999,16137,.11518E-4,.55E-6,0
STARLINK-6290,2023-099A,2026-06-11T11:26:37.129632,15.27575032,.0000674,43.0041,82.4286,216.6412,143.4393,0,U,57328,999,16133,-.35376E-5,-.359E-5,0
STARLINK-6138,2023-099B,2026-06-12T00:00:02.999808,15.27573459,.00015805,43.0052,79.8117,273.7602,305.5104,0,U,57329,999,582,-.24814258E-3,-.7083E-4,0
STARLINK-6212,2023-099C,2026-06-10T12:10:55.148736,15.27577057,.00005718,43.0037,88.0526,263.8994,96.1793,0,U,57330,999,16027,.5652964E-5,-.106E-5,0
STARLINK-6234,2023-099D,2026-06-11T11:48:48.976992,15.27575239,.000137,43.0154,82.5430,267.1047,92.9648,0,U,57331,999,16042,-.43176E-5,-.381E-5,0
STARLINK-5831,2023-099E,2026-06-11T11:52:31.353312,15.27574066,.0001464,43.0051,82.5614,269.7344,90.3340,0,U,57332,999,16042,.21529E-4,.33E-5,0
STARLINK-5585,2023-099F,2026-06-11T11:58:03.971712,15.27580712,.0000934,43.0048,82.5931,285.7106,74.3642,0,U,57333,999,16042,.29694E-4,.555E-5,0
STARLINK-5589,2023-099G,2026-06-11T12:09:11.404800,15.27573337,.0001167,43.0039,82.6392,232.9136,127.1609,0,U,57334,999,16042,.32192E-4,.624E-5,0
STARLINK-6316,2023-099H,2026-06-11T11:01:36.257952,15.27591925,.000126,43.0031,79.7490,269.2303,90.8404,0,U,57335,999,16045,.54628E-4,.1242E-4,0
STARLINK-6320,2023-099J,2026-06-11T10:52:23.159712,15.27560363,.0000972,43.0045,79.6807,259.5232,100.5510,0,U,57336,999,16045,-.63917E-4,-.2019E-4,0
STARLINK-6322,2023-099K,2026-06-11T01:21:10.844928,15.27585847,.00011976,43.0011,85.2814,244.1174,115.9554,0,U,57337,999,16035,.77662873E-4,.1876E-4,0
STARLINK-6374,2023-099L,2026-06-11T01:24:52.353792,15.27579136,.00017714,43.0022,85.2977,258.3302,101.7351,0,U,57338,999,16035,.23629811E-4,.388E-5,0
STARLINK-6332,2023-099M,2026-06-10T01:43:16.275360,15.27583663,.00021761,43.0078,90.7986,258.6640,101.3967,0,U,57339,999,16020,.47754271E-4,.1052E-4,0
STARLINK-6321,2023-099N,2026-06-11T11:12:01.310976,15.27576096,.0000955,43.0041,83.1992,259.6093,100.4651,0,U,57340,999,16041,.53472E-5,-.115E-5,0
STARLINK-6377,2023-099P,2026-06-11T11:55:29.288064,15.27583779,.0002387,43.0032,85.9897,275.8907,84.1672,0,U,57341,999,16038,.38363E-4,.793E-5,0
STARLINK-6375,2023-099Q,2026-06-11T01:12:37.838880,15.27580462,.00015152,43.0044,81.8337,264.1923,95.8756,0,U,57342,999,16039,.31510228E-4,.605E-5,0
STARLINK-6379,2023-099R,2026-06-11T01:35:58.636896,15.27578822,.0001337,43.0040,85.3582,261.0126,99.0574,0,U,57343,999,16035,.22123092E-4,.347E-5,0
STARLINK-6380,2023-099S,2026-06-11T11:32:09.792096,15.27576754,.0000837,43.0031,82.4462,262.0882,97.9875,0,U,57344,999,16042,.10588E-4,.29E-6,0
STARLINK-6373,2023-099T,2026-06-11T11:51:48.563712,15.27583295,.0000899,43.0025,85.9639,257.6788,102.3963,0,U,57345,999,16038,.35982E-4,.728E-5,0
