STARLINK-5504           
1 57262U 23094AW  26161.87252380  .00000597  00000+0  31228-4 0  9991
2 57262  43.0047 213.4142 0001789 263.3409  96.7239 15.27576477161499
STARLINK-5509           
1 57263U 23094AX  26162.43143416  .00000029  00000+0  10589-4 0  9991
2 57263  42.9981 221.1781 0001001 238.2445 121.8309 15.27576787161456
STARLINK-5858           
1 57264U 23094AY  26161.42509728 -.00001762  00000+0 -54539-4 0  9992
2 57264  43.0029 216.0744 0001907 266.3795  93.6839 15.27570239161426
HULIANWANG JISHU SHIYAN*
1 57288U 23095A   26162.95327286  .00000066  00000+0  94657-4 0  9994
2 57288  86.5031   6.5875 0016935 199.9940 160.0541 13.39542154143058
HULIANWANG JISHU SHIYAN*
1 57289U 23095B   26162.94498905  .00000067  00000+0  96457-4 0  9992
2 57289  86.5033   6.5994 0015584 197.4345 162.6265 13.39550895143056
STARLINK-30198          
1 57290U 23096A   26162.42324110  .00028740  00000+0  11287-2 0  9998
2 57290  42.9900  57.9593 0006884 213.3778 146.6639 15.25162671161902
STARLINK-30239          
1 57291U 23096B   26162.42274115 -.00001421  00000+0 -41968-4 0  9998
2 57291  43.0250  53.7400 0007852 270.1614  89.8338 15.27581589161954
STARLINK-30235          
1 57294U 23096E   26162.42918716  .00000486  00000+0  27169-4 0  9998
2 57294  42.9982  53.7874 0000395 217.5989 142.4835 15.27579263161951
STARLINK-30236          
1 57300U 23096L   26161.97533354  .00000101  00000+0  13207-4 0  9998
2 57300  42.9994  56.3878 0001193 247.8070 112.2655 15.27576589161929
STARLINK-30201          
1 57301U 23096M   26161.00481960  .00000521  00000+0  28460-4 0  9991
2 57301  43.0067  62.0117 0001077 266.6436  93.4293 15.27578748160835
STARLINK-30233          
1 57302U 23096N   26161.97918644  .00000657  00000+0  33396-4 0  9996
2 57302  43.0062  56.4076 0000710 254.2964 105.7809 15.27581117160984
STARLINK-30184          
1 57310U 23096W   26162.34185159  .00000055  00000+0  11518-4 0  9998
2 57310  43.0097  25.5716 0000353 297.3273  62.7543 15.27578032161376
STARLINK-6290           
1 57328U 23099A   26162.47681863 -.00000359  00000+0 -35376-5 0  9995
2 57328  43.0041  82.4286 0000674 216.6412 143.4393 15.27575032161336
STARLINK-6138           
1 57329U 23099B   26163.00003472 -.00007083  00000+0 -24814-3 0  9994
2 57329  43.0052  79.8117 0001580 273.7602 305.5104 15.27573459  5827
STARLINK-6212           
1 57330U 23099C   26161.50758274 -.00000106  00000+0  56530-5 0  9996
2 57330  43.0037  88.0526 0000571 263.8994  96.1793 15.27577057160277
STARLINK-6234           
1 57331U 23099D   26162.49223353 -.00000381  00000+0 -43176-5 0  9999
2 57331  43.0154  82.5430 0001370 267.1047  92.9648 15.27575239160425
STARLINK-5831           
1 57332U 23099E   26162.49480733  .00000330  00000+0  21529-4 0  9996
2 57332  43.0051  82.5614 0001464 269.7344  90.3340 15.27574066160426
STARLINK-5585           
1 57333U 23099F   26162.49865708  .00000555  00000+0  29694-4 0  9996
2 57333  43.0048  82.5931 0000934 285.7106  74.3642 15.27580712160422
STARLINK-5589           
1 57334U 23099G   26162.50638200  .00000624  00000+0  32192-4 0  9998
2 57334  43.0039  82.6392 0001167 232.9136 127.1609 15.27573337160426
STARLINK-6316           
1 57335U 23099H   26162.45944743  .00001242  00000+0  54628-4 0  9990
2 57335  43.0031  79.7490 0001260 269.2303  90.8404 15.27591925160453
STARLINK-6320           
1 57336U 23099J   26162.45304583 -.00002019  00000+0 -63917-4 0  9999
2 57336  43.0045  79.6807 0000972 259.5232 100.5510 15.27560363160451
STARLINK-6322           
1 57337U 23099K   26162.05637552  .00001876  00000+0  77663-4 0  9992
2 57337  43.0011  85.2814 0001197 244.1174 115.9554 15.27585847160352
STARLINK-6374           
1 57338U 23099L   26162.05893928  .00000388  00000+0  23630-4 0  9996
2 57338  43.0022  85.2977 0001771 258.3302 101.7351 15.27579136160355
STARLINK-6332           
1 57339U 23099M   26161.07171615  .00001052  00000+0  47754-4 0  9992
2 57339  43.0078  90.7986 0002176 258.6640 101.3967 15.27583663160209
STARLINK-6321           
1 57340U 23099N   26162.46668184 -.00000115  00000+0  53472-5 0  9995
2 57340  43.0041  83.1992 0000955 259.6093 100.4651 15.27576096160415
STARLINK-6377           
1 57341U 23099P   26162.49686676  .00000793  00000+0  38363-4 0  9997
2 57341  43.0032  85.9897 0002387 275.8907  84.1672 15.27583779160388
STARLINK-6375           
1 57342U 23099Q   26162.05043795  .00000605  00000+0  31510-4 0  9998
2 57342  43.0044  81.8337 0001515 264.1923  95.8756 15.27580462160396
STARLINK-6379           
1 57343U 23099R   26162.06665089  .00000347  00000+0  22123-4 0  9999
2 57343  43.0040  85.3582 0001337 261.0126  99.0574 15.27578822160354
STARLINK-6380           
1 57344U 23099S   26162.48066889  .00000029  00000+0  10588-4 0  9998
2 57344  43.0031  82.4462 0000837 262.0882  97.9875 15.27576754160425
STARLINK-6373           
1 57345U 23099T   26162.49431208  .00000728  00000+0  35982-4 0  9992
2 57345  43.0025  85.9639 0000899 257.6788 102.3963 15.27583295160388
